SES-2                   
1 37809U 11049A   26196.61108737 -.00000206  00000+0  00000+0 0  9996
2 37809   0.1292  91.0241 0002728  23.4788 311.9324  1.00270214 54246
ARABSAT-5C              
1 37810U 11049B   26196.84618729  .00000113  00000+0  00000+0 0  9996
2 37810   0.0510  22.1759 0003541 108.6648 127.4558  1.00271733 54329
EUTELSAT 7 WEST A       
1 37816U 11051A   26196.69815509 -.00000071  00000+0  00000+0 0  9997
2 37816   0.0622 349.4057 0004613 138.7027  49.4380  1.00270924 54160
QUETZSAT 1              
1 37826U 11054A   26195.97154447 -.00000250  00000+0  00000+0 0  9997
2 37826   0.0106  33.2728 0002582  89.6621  82.6551  1.00271182 50159
INTELSAT 18 (IS-18)     
1 37834U 11056A   26196.59271395  .00000043  00000+0  00000+0 0  9998
2 37834   0.0273 285.8659 0001889 199.7046 201.2331  1.00274455 54092
EUTELSAT 16A            
1 37836U 11057A   26196.84540728  .00000094  00000+0  00000+0 0  9994
2 37836   0.0406  22.3426 0005788  89.2826 142.4199  1.00274124  7627
VIASAT-1                
1 37843U 11059A   26196.60554067  .00000000  00000+0  00000+0 0  9996
2 37843   0.0245  57.1069 0002147  50.6094 288.6221  1.00269784 47607
ASIASAT 7               
1 37933U 11069A   26196.86308137 -.00000344  00000+0  00000+0 0  9992
2 37933   0.0172  68.5326 0001227  17.0831 264.3104  1.00271733 45147
BEIDOU-2 IGSO-5         
1 37948U 11073A   26183.72937883 -.00000128  00000+0  00000+0 0  9990
2 37948  47.6496 271.3544 0114527 222.0502 141.5350  1.00270596 53296
LUCH-5A                 
1 37951U 11074B   26196.44756497 -.00000064  00000+0  00000+0 0  9997
2 37951   8.8235  73.3905 0002635  60.7728 127.2423  1.00273119 53335
NIGCOMSAT 1R            
1 38014U 11077A   26196.77933619  .00000135  00000+0  00000+0 0  9998
2 38014   0.0290 113.3079 0002548 235.4835 267.8686  1.00271072 53249
WGS F4 (USA 233)        
1 38070U 12003A   26196.74697707 -.00000225  00000+0  00000+0 0  9993
2 38070   0.0181  40.0018 0000564 116.2577 134.6470  1.00269630 44434
SES-4                   
1 38087U 12007A   26196.69529508 -.00000178  00000+0  00000+0 0  9999
2 38087   0.0221  44.8522 0002461  71.8199  45.1710  1.00272796 52511
BEIDOU-2 G5             
1 38091U 12008A   26196.85369582  .00000045  00000+0  00000+0 0  9999
2 38091   3.6427  69.5109 0007303 268.5441 321.6262  1.00270397 52657
MUOS-1                  
1 38093U 12009A   26196.67986836 -.00000140  00000+0  00000+0 0  9996
2 38093   5.5324  47.1147 0056836   3.4965  27.7151  1.00271752 52738
INTELSAT 22 (IS-22)     
1 38098U 12011A   26196.78519432 -.00000069  00000+0  00000+0 0  9990
2 38098   0.0145  43.6803 0001862  79.5559 165.1557  1.00271857  7470
APSTAR-7                
1 38107U 12013A   26196.87629425 -.00000112  00000+0  00000+0 0  9996
2 38107   0.0229  88.6019 0002953  37.5513 199.5295  1.00270981 52093
YAHSAT 1B               
1 38245U 12016A   26194.07140409  .00000124  00000+0  00000+0 0  9994
2 38245   0.0884  88.7099 0003499  45.3416 230.2049  1.00273295 45865
AEHF-2 (USA 235)        
1 38254U 12019A   26196.41122167 -.00000148  00000+0  00000+0 0  9995
2 38254   6.7136  57.2737 0002196  58.1363 309.4006  1.00272224  7270
JCSAT-13                
1 38331U 12023A   26196.79546248  .00000000  00000+0  00000+0 0  9993
2 38331   0.0258  53.9768 0002555  71.7674 218.2769  1.00267229 51822
VINASAT-2               
1 38332U 12023B   26196.79702249 -.00000339  00000+0  00000+0 0  9995
2 38332   0.0274 317.3775 0002170 159.5296 235.5017  1.00270466 46946
NIMIQ 6                 
1 38342U 12026A   26196.50461409 -.00000184  00000+0  00000+0 0  9996
2 38342   0.0709 265.5654 0002682 214.8654 263.4799  1.00271581 50694
ZHONGXING-2A            
1 38352U 12028A   26196.86169470 -.00000304  00000+0  00000+0 0  9995
2 38352   1.5262  83.4973 0001413  39.9185 218.7469  1.00270222 51589
INTELSAT 19 (IS-19)     
1 38356U 12030A   26196.73251420 -.00000067  00000+0  00000+0 0  9991
2 38356   0.0171  24.6499 0003201 103.4286 235.1949  1.00271373 50732
ECHOSTAR 17             
1 38551U 12035A   26194.31241801 -.00000078  00000+0  00000+0 0  9999
2 38551   0.0038  99.8957 0002068  10.3898 186.2739  1.00271168 51320
METEOSAT-10 (MSG-3)     
1 38552U 12035B   26196.77092949 -.00000020  00000+0  00000+0 0  9996
2 38552   4.7376  60.8781 0001173  16.4116 133.9022  1.00270979 51149
SES-5                   
1 38652U 12036A   26196.77188284  .00000023  00000+0  00000+0 0  9998
2 38652   0.0452 321.8641 0001961 151.4020 103.2001  1.00271295 44745
INTELSAT 20 (IS-20)     
1 38740U 12043A   26196.78450097 -.00000034  00000+0  00000+0 0  9992
2 38740   0.0127  66.1493 0001498 112.8931 105.5028  1.00270704 51031
HYLAS 2                 
1 38741U 12043B   26196.75652100 -.00000269  00000+0  00000+0 0  9999
2 38741   2.4990  80.7197 0002433  57.6572 354.9837  1.00270229 51069
INTELSAT 21 (IS-21)     
1 38749U 12045A   26196.75938101 -.00000295  00000+0  00000+0 0  9996
2 38749   0.0520 250.4892 0001538 235.3860  23.0978  1.00272780 50814
ASTRA 2F                
1 38778U 12051A   26196.85407067  .00000139  00000+0  00000+0 0  9994
2 38778   0.0877 255.9025 0002940 287.7478  85.6660  1.00269607 41426
GSAT-10                 
1 38779U 12051B   26196.78727433 -.00000175  00000+0  00000+0 0  9990
2 38779   0.0898 264.6023 0007408 189.6929 205.7401  1.00272800 50382
