OBJECT_NAME,OBJECT_ID,EPOCH,MEAN_MOTION,ECCENTRICITY,INCLINATION,RA_OF_ASC_NODE,ARG_OF_PERICENTER,MEAN_ANOMALY,EPHEMERIS_TYPE,CLASSIFICATION_TYPE,NORAD_CAT_ID,ELEMENT_SET_NO,REV_AT_EPOCH,BSTAR,MEAN_MOTION_DOT,MEAN_MOTION_DDOT
SES-2,2011-049A,2026-07-15T14:39:57.948768,1.00270214,.0002728,0.1292,91.0241,23.4788,311.9324,0,U,37809,999,5424,0,-.206E-5,0
ARABSAT-5C,2011-049B,2026-07-15T20:18:30.581856,1.00271733,.0003541,0.0510,22.1759,108.6648,127.4558,0,U,37810,999,5432,0,.113E-5,0
EUTELSAT 7 WEST A,2011-051A,2026-07-15T16:45:20.599776,1.00270924,.0004613,0.0622,349.4057,138.7027,49.4380,0,U,37816,999,5416,0,-.71E-6,0
QUETZSAT 1,2011-054A,2026-07-14T23:19:01.442208,1.00271182,.00025825,0.0106,33.2728,89.6621,82.6551,0,U,37826,999,5015,0,-.25E-5,0
INTELSAT 18 (IS-18),2011-056A,2026-07-15T14:13:30.485280,1.00274455,.0001889,0.0273,285.8659,199.7046,201.2331,0,U,37834,999,5409,0,.43E-6,0
EUTELSAT 16A,2011-057A,2026-07-15T20:17:23.188992,1.00274124,.0005788,0.0406,22.3426,89.2826,142.4199,0,U,37836,999,762,0,.94E-6,0
VIASAT-1,2011-059A,2026-07-15T14:31:58.713888,1.00269784,.0002147,0.0245,57.1069,50.6094,288.6221,0,U,37843,999,4760,0,0,0
ASIASAT 7,2011-069A,2026-07-15T20:42:50.230368,1.00271733,.0001227,0.0172,68.5326,17.0831,264.3104,0,U,37933,999,4514,0,-.344E-5,0
BEIDOU-2 IGSO-5,2011-073A,2026-07-02T17:30:18.330912,1.00270596,.01145273,47.6496,271.3544,222.0502,141.5350,0,U,37948,999,5329,0,-.128E-5,0
LUCH-5A,2011-074B,2026-07-15T10:44:29.613408,1.00273119,.0002635,8.8235,73.3905,60.7728,127.2423,0,U,37951,999,5333,0,-.64E-6,0
NIGCOMSAT 1R,2011-077A,2026-07-15T18:42:14.646816,1.00271072,.0002548,0.0290,113.3079,235.4835,267.8686,0,U,38014,999,5324,0,.135E-5,0
WGS F4 (USA 233),2012-003A,2026-07-15T17:55:38.818848,1.00269630,.0000564,0.0181,40.0018,116.2577,134.6470,0,U,38070,999,4443,0,-.225E-5,0
SES-4,2012-007A,2026-07-15T16:41:13.494912,1.00272796,.0002461,0.0221,44.8522,71.8199,45.1710,0,U,38087,999,5251,0,-.178E-5,0
BEIDOU-2 G5,2012-008A,2026-07-15T20:29:19.318848,1.00270397,.0007303,3.6427,69.5109,268.5441,321.6262,0,U,38091,999,5265,0,.45E-6,0
MUOS-1,2012-009A,2026-07-15T16:19:00.626304,1.00271752,.0056836,5.5324,47.1147,3.4965,27.7151,0,U,38093,999,5273,0,-.14E-5,0
INTELSAT 22 (IS-22),2012-011A,2026-07-15T18:50:40.789248,1.00271857,.0001862,0.0145,43.6803,79.5559,165.1557,0,U,38098,999,747,0,-.69E-6,0
APSTAR-7,2012-013A,2026-07-15T21:01:51.823200,1.00270981,.0002953,0.0229,88.6019,37.5513,199.5295,0,U,38107,999,5209,0,-.112E-5,0
YAHSAT 1B,2012-016A,2026-07-13T01:42:49.313376,1.00273295,.00034999,0.0884,88.7099,45.3416,230.2049,0,U,38245,999,4586,0,.124E-5,0
AEHF-2 (USA 235),2012-019A,2026-07-15T09:52:09.552288,1.00272224,.00021965,6.7136,57.2737,58.1363,309.4006,0,U,38254,999,727,0,-.148E-5,0
JCSAT-13,2012-023A,2026-07-15T19:05:27.958272,1.00267229,.0002555,0.0258,53.9768,71.7674,218.2769,0,U,38331,999,5182,0,0,0
VINASAT-2,2012-023B,2026-07-15T19:07:42.743136,1.00270466,.000217,0.0274,317.3775,159.5296,235.5017,0,U,38332,999,4694,0,-.339E-5,0
NIMIQ 6,2012-026A,2026-07-15T12:06:38.657376,1.00271581,.00026824,0.0709,265.5654,214.8654,263.4799,0,U,38342,999,5069,0,-.184E-5,0
ZHONGXING-2A,2012-028A,2026-07-15T20:40:50.422080,1.00270222,.0001413,1.5262,83.4973,39.9185,218.7469,0,U,38352,999,5158,0,-.304E-5,0
INTELSAT 19 (IS-19),2012-030A,2026-07-15T17:34:49.226880,1.00271373,.0003201,0.0171,24.6499,103.4286,235.1949,0,U,38356,999,5073,0,-.67E-6,0
ECHOSTAR 17,2012-035A,2026-07-13T07:29:52.916064,1.00271168,.0002068,0.0038,99.8957,10.3898,186.2739,0,U,38551,999,5132,0,-.78E-6,0
METEOSAT-10 (MSG-3),2012-035B,2026-07-15T18:30:08.307936,1.00270979,.0001173,4.7376,60.8781,16.4116,133.9022,0,U,38552,999,5114,0,-.2E-6,0
SES-5,2012-036A,2026-07-15T18:31:30.677376,1.00271295,.0001961,0.0452,321.8641,151.4020,103.2001,0,U,38652,999,4474,0,.23E-6,0
INTELSAT 20 (IS-20),2012-043A,2026-07-15T18:49:40.883808,1.00270704,.0001498,0.0127,66.1493,112.8931,105.5028,0,U,38740,999,5103,0,-.34E-6,0
HYLAS 2,2012-043B,2026-07-15T18:09:23.414400,1.00270229,.0002433,2.4990,80.7197,57.6572,354.9837,0,U,38741,999,5106,0,-.269E-5,0
INTELSAT 21 (IS-21),2012-045A,2026-07-15T18:13:30.519264,1.00272780,.0001538,0.0520,250.4892,235.3860,23.0978,0,U,38749,999,5081,0,-.295E-5,0
ASTRA 2F,2012-051A,2026-07-15T20:29:51.705888,1.00269607,.000294,0.0877,255.9025,287.7478,85.6660,0,U,38778,999,4142,0,.139E-5,0
GSAT-10,2012-051B,2026-07-15T18:53:40.502112,1.00272800,.0007408,0.0898,264.6023,189.6929,205.7401,0,U,38779,999,5038,0,-.175E-5,0
